[{"OBJECT_NAME":"GEESAT-3 08","OBJECT_ID":"2024-159H","EPOCH":"2026-03-09T22:22:53.260032","MEAN_MOTION":14.83813348,"ECCENTRICITY":0.00278455,"INCLINATION":50.0035,"RA_OF_ASC_NODE":183.2774,"ARG_OF_PERICENTER":72.9833,"MEAN_ANOMALY":287.4154,"EPHEMERIS_TYPE":0,"CLASSIFICATION_TYPE":"U","NORAD_CAT_ID":61018,"ELEMENT_SET_NO":999,"REV_AT_EPOCH":8203,"BSTAR":0.00040891226,"MEAN_MOTION_DOT":3.215e-5,"MEAN_MOTION_DDOT":0},{"OBJECT_NAME":"IRIDIUM 33 DEB","OBJECT_ID":"1997-051ST","EPOCH":"2026-03-07T21:30:34.542432","MEAN_MOTION":14.77906491,"ECCENTRICITY":0.0011118,"INCLINATION":86.3242,"RA_OF_ASC_NODE":296.5068,"ARG_OF_PERICENTER":321.559,"MEAN_ANOMALY":38.4837,"EPHEMERIS_TYPE":0,"CLASSIFICATION_TYPE":"U","NORAD_CAT_ID":35809,"ELEMENT_SET_NO":999,"REV_AT_EPOCH":88064,"BSTAR":0.0019374861,"MEAN_MOTION_DOT":0.00013997,"MEAN_MOTION_DDOT":0}]
